# From MPC 91617
P/2014 W12 (Gibbs),e,8.5181,299.3898,36.9070,3.436243,0.1547313,0.51326793,12.6832,02/05.0/2015,2000,g 15.0,4.0
# From MPC 92275
P/2014 X1 (Elenin),e,25.9717,61.5691,34.3685,6.259194,0.0629400,0.71004315,1.7785,02/05.0/2015,2000,g 15.0,4.0
# From MPC 92275
C/2014 XB8 (PANSTARRS),e,149.7663,37.4999,351.6945,359.7700,0.0001444,0.99164293,0.0000,04/06.4788/2015,2000,g 13.5,4.0
# From MPC 92275
C/2014 Y1 (PANSTARRS),h,01/17.7407/2016,14.9199,19.5554,182.2652,1.001758,2.240036,2000,9.5,4.0
# From MPC 92275
C/2015 A1 (PANSTARRS),e,80.3844,341.1297,244.7968,21.91758,0.0096054,0.90886203,359.6559,02/05.0/2015,2000,g 14.5,4.0
# From MPC 92275
C/2015 A2 (PANSTARRS),p,08/06.8226/2015,109.1054,209.4336,5.328145,258.4985,2000,10.5,4.0
# From MPC 92275
P/2015 A3 (PANSTARRS),e,172.5199,277.0962,249.2758,7.852194,0.0447938,0.85281066,359.2166,02/05.0/2015,2000,g 20.0,4.0
# From MPEC 2015-C12
C/2015 B1 (PANSTARRS),p,09/25.4429/2016,20.9078,250.8133,3.720716,352.2101,2000,8.5,4.0
# From AJ 98, 1083
1P/Halley,e,162.2423,58.8870,111.7436,17.85751,0.0130609,0.96800838,138.3748,02/05.0/2015,2000,g  5.5,3.2
# From NK 2573
2P/Encke,e,11.7816,334.5686,186.5425,2.215127,0.2989552,0.84831418,131.6177,02/05.0/2015,2000,g 11.5,6.0
# From MPC 92275
4P/Faye,e,9.0514,199.2410,205.1165,3.839546,0.1310039,0.56898028,32.9228,02/05.0/2015,2000,g  8.0,6.0
# From MPC 87918
6P/d'Arrest,e,19.4817,138.9334,178.1218,3.503897,0.1502716,0.61142871,356.1780,02/05.0/2015,2000,g  7.5,16.0
# From MPC 79347
7P/Pons-Winnecke,e,22.3350,93.4162,172.5067,3.418968,0.1559055,0.63754785,0.8535,02/05.0/2015,2000,g 10.0,6.0
# From MPC 75715
8P/Tuttle,e,55.0706,270.3541,207.4859,5.690334,0.0726102,0.82043541,186.0807,02/05.0/2015,2000,g  8.0,8.0
# From MPC 84319
9P/Tempel,e,10.4835,68.8422,179.2290,3.143833,0.1768133,0.51039618,263.7310,02/05.0/2015,2000,g  5.5,10.0
# From MPC 79344
10P/Tempel,e,12.0289,117.8058,195.5473,3.063785,0.1837878,0.53725809,308.1216,02/05.0/2015,2000,g  5.0,10.0
# From MPC 89730
11P/Tempel-Swift-LINEAR,e,13.5746,240.4298,164.0843,3.411581,0.1564122,0.54606467,25.3468,02/05.0/2015,2000,g 17.0,4.0
# From QJ 27, 604
12P/Pons-Brooks,e,74.4493,255.9831,199.1439,16.95231,0.0141209,0.95445153,312.4903,02/05.0/2015,2000,g  5.0,6.0
# From QJ 27, 604
13P/Olbers,e,44.6557,86.2729,64.3951,16.67563,0.0144737,0.93056349,310.3532,02/05.0/2015,2000,g  5.0,6.0
# From MPC 75715
14P/Wolf,e,27.9115,202.1297,159.1480,4.253932,0.1123358,0.35557892,244.1115,02/05.0/2015,2000,g  5.5,12.0
# From MPC 91617
15P/Finlay,e,6.7990,13.7781,347.5517,3.487374,0.1513409,0.72016204,6.0454,02/05.0/2015,2000,g 12.0,4.0
# From MPC 92276
16P/Brooks,e,4.2589,159.2967,219.6906,3.355599,0.1603426,0.56294982,38.8642,02/05.0/2015,2000,g  7.5,10.0
# From MPC 83523
17P/Holmes,e,19.0918,326.7643,24.5345,3.619779,0.1431136,0.43175579,45.0035,02/05.0/2015,2000,g 10.0,6.0
# From MPC 79344
19P/Borrelly,e,30.3677,75.3782,353.4550,3.601798,0.1441866,0.62547332,343.7197,02/05.0/2015,2000,g  4.5,10.0
# From MPC 79024
21P/Giacobini-Zinner,e,31.9042,195.4019,172.5531,3.514706,0.1495790,0.70662237,163.0389,02/05.0/2015,2000,g  9.0,6.0
# From MPC 87068
22P/Kopff,e,4.7372,120.8742,162.8788,3.445757,0.1540909,0.54769917,319.6153,02/05.0/2015,2000,g  3.0,10.4
# From MPC 14747
23P/Brorsen-Metcalf,e,19.4908,311.0033,130.1470,16.95811,0.0141136,0.97201616,0.0000,09/22.2121/1989,2000,g  7.8,3.2
# From MPC 56804
24P/Schaumasse,e,11.7344,79.6964,57.9575,4.087274,0.1192761,0.70485227,238.8750,02/05.0/2015,2000,g  6.5,14.0
# From MPC 84319
26P/Grigg-Skjellerup,e,22.4310,211.5354,2.1452,3.016789,0.1880991,0.64033060,108.8934,02/05.0/2015,2000,g 12.0,16.0
# From MPC 78188
27P/Crommelin,e,29.0765,250.5982,196.0543,9.244339,0.0350663,0.91911421,44.9112,02/05.0/2015,2000,g 12.0,8.0
# From MPC 75715
28P/Neujmin,e,14.3179,346.3506,347.6287,6.932872,0.0539926,0.77233560,239.4647,02/05.0/2015,2000,g  8.5,6.0
# From MPC 92276
29P/Schwassmann-Wachmann,e,9.3766,312.4123,50.1234,6.010093,0.0668932,0.04177209,258.0548,02/05.0/2015,2000,g  4.0,4.0
# From NK 2729
30P/Reinmuth,e,8.1299,119.7271,13.1943,3.772212,0.1345272,0.50231882,235.4487,02/05.0/2015,2000,g  9.5,6.0
# From MPC 79344
31P/Schwassmann-Wachmann,e,4.5472,114.1502,18.1698,4.247110,0.1126066,0.19413707,178.7188,02/05.0/2015,2000,g  5.0,8.0
# From MPC 92276
32P/Comas Sola,e,9.9691,57.8382,53.3324,4.509875,0.1029099,0.55628644,11.3651,02/05.0/2015,2000,g  6.5,8.0
# From MPC 84320
33P/Daniel,e,22.3922,66.5083,19.0277,4.025551,0.1220299,0.46337462,291.1350,02/05.0/2015,2000,g 10.0,12.0
# From QJ 15, 452
35P/Herschel-Rigollet,e,63.4804,355.5953,29.4651,28.56143,0.0064571,0.97372116,0.0000,08/31.5619/1939,2000,g  8.5,4.0
# From MPC 75716
36P/Whipple,e,9.9399,181.9581,200.3508,4.155776,0.1163391,0.26237702,132.6822,02/05.0/2015,2000,g  8.5,6.0
# From MPC 80901
37P/Forbes,e,8.9798,314.6368,330.2081,3.448788,0.1538878,0.53608018,177.8186,02/05.0/2015,2000,g 10.5,4.8
# From QJ 27, 605
38P/Stephan-Oterma,e,18.3791,78.0800,359.6039,11.27452,0.0260350,0.85955309,324.2178,02/05.0/2015,2000,g  3.5,12.0
# From MPC 75716
39P/Oterma,e,1.4848,302.9855,90.3953,7.406149,0.0489007,0.22776409,213.8343,02/05.0/2015,2000,g  5.0,6.0
# From MPC 86231
40P/Vaisala,e,11.4928,133.8401,47.2739,4.938463,0.0898083,0.63155162,7.2910,02/05.0/2015,2000,g  5.5,12.0
# From MPC 62882
41P/Tuttle-Giacobini-Kresak,e,9.2291,141.0839,62.0993,3.085556,0.1818460,0.66078044,214.6819,02/05.0/2015,2000,g 10.0,16.0
# From MPC 79344
42P/Neujmin,e,3.9844,150.2809,147.1393,4.875927,0.0915415,0.58408794,354.2994,02/05.0/2015,2000,g 13.0,6.0
# From MPC 84320
43P/Wolf-Harrington,e,15.9678,249.8556,191.5773,3.349962,0.1607475,0.59477652,269.7254,02/05.0/2015,2000,g  8.0,6.0
# From MPC 89313
44P/Reinmuth,e,5.8954,286.4661,58.2848,3.694427,0.1387981,0.42653290,353.4550,02/05.0/2015,2000,g  8.3,6.0
# From MPC 84320
45P/Honda-Mrkos-Pajdusakova,e,4.2517,88.9999,326.2982,3.023453,0.1874776,0.82414210,229.6853,02/05.0/2015,2000,g 13.5,8.0
# From MPC 88330
46P/Wirtanen,e,11.7558,82.1675,356.3529,3.088150,0.1816170,0.65905210,104.5545,02/05.0/2015,2000,g  9.0,6.0
# From NK 2718
47P/Ashbrook-Jackson,e,13.0324,356.9870,357.8057,4.121998,0.1177721,0.31676179,259.0965,02/05.0/2015,2000,g  1.0,11.2
# From MPC 75716
48P/Johnson,e,13.5129,116.0189,208.8870,3.550899,0.1472979,0.41745226,171.5754,02/05.0/2015,2000,g 10.0,6.0
# From MPC 79345
49P/Arend-Rigaux,e,19.0566,118.8309,332.9274,3.566845,0.1463112,0.60016839,176.2613,02/05.0/2015,2000,g 11.3,4.4
# From MPC 84320
50P/Arend,e,19.1380,355.1786,49.2268,4.085671,0.1193463,0.53042182,316.0600,02/05.0/2015,2000,g  9.5,6.0
# From MPC 79345
51P/Harrington,e,5.4244,83.6949,269.3025,3.714096,0.1376970,0.54244200,334.0501,02/05.0/2015,2000,g 10.0,8.0
# From MPC 88330
52P/Harrington-Abell,e,10.2315,336.8502,139.6033,3.857847,0.1300728,0.54036654,43.5098,02/05.0/2015,2000,g 13.5,6.0
# From MPC 84320
53P/Van Biesbroeck,e,6.6082,148.9225,134.1591,5.412303,0.0782764,0.55138300,324.7848,02/05.0/2015,2000,g  7.7,4.8
# From NK 2713
54P/de Vico-Swift-NEAT,e,6.0582,358.8654,1.9337,3.793524,0.1333951,0.42443256,253.1927,02/05.0/2015,2000,g 10.0,6.0
# From MPC 31070
55P/Tempel-Tuttle,e,162.4364,235.3735,172.5979,10.34161,0.0296361,0.90574426,183.1856,02/05.0/2015,2000,g 10.0,10.0
# From MPC 75716
56P/Slaughter-Burnham,e,8.1477,345.9890,44.2508,5.085647,0.0859379,0.50688401,314.4978,02/05.0/2015,2000,g  8.5,6.0
# From MPC 79345
57P/du Toit-Neujmin-Delporte,e,2.8479,188.8127,115.2161,3.452260,0.1536558,0.49922573,343.6696,02/05.0/2015,2000,g 12.5,6.0
# From MPC 65938
58P/Jackson-Neujmin,e,13.5252,160.5763,200.2925,4.061603,0.1204087,0.66333326,124.1803,02/05.0/2015,2000,g 15.5,6.0
# From MPC 64498
59P/Kearns-Kwee,e,9.3459,312.8407,127.7953,4.491766,0.1035329,0.47603181,223.4249,02/05.0/2015,2000,g  7.0,6.0
# From MPC 79654
60P/Tsuchinshan,e,3.6099,267.6721,216.4707,3.509294,0.1499251,0.53864611,149.4976,02/05.0/2015,2000,g 11.5,6.0
# From MPC 79345
61P/Shajn-Schaldach,e,6.0056,163.0203,221.9147,3.681921,0.1395058,0.42589866,326.6346,02/05.0/2015,2000,g  6.0,10.0
# From MPC 62881
62P/Tsuchinshan,e,9.7120,90.2902,30.2913,3.439089,0.1545393,0.59794833,203.1847,02/05.0/2015,2000,g  8.0,10.0
# From MPC 84320
63P/Wild,e,19.7817,357.9833,169.0705,5.591106,0.0745517,0.65107429,49.5818,02/05.0/2015,2000,g 10.5,6.0
# From MPC 66706
64P/Swift-Gehrels,e,8.9404,300.0916,97.1189,4.451235,0.1049502,0.68784771,216.4772,02/05.0/2015,2000,g  8.5,12.0
# From MPC 92276
65P/Gunn,e,9.1975,63.8072,211.4116,3.887779,0.1285736,0.25856431,234.5301,02/05.0/2015,2000,g  5.0,6.0
# From MPC 48097
66P/du Toit,e,18.6699,21.9771,257.3431,6.024859,0.0666475,0.78661097,280.0161,02/05.0/2015,2000,g 12.0,3.6
# From MPC 89011
67P/Churyumov-Gerasimenko,e,7.0401,50.1387,12.7903,3.462594,0.1529684,0.64094712,331.0772,02/05.0/2015,2000,g 11.0,4.0
# From MPC 75716
68P/Klemola,e,11.1448,175.3500,153.9464,4.896494,0.0909654,0.63933680,201.1574,02/05.0/2015,2000,g 10.0,4.0
# From MPC 77020
69P/Taylor,e,22.0490,104.8510,343.6643,3.887268,0.1285989,0.41410200,166.9326,02/05.0/2015,2000,g  9.5,12.0
# From MPC 92276
70P/Kojima,e,6.6003,119.2717,1.9701,3.675485,0.1398724,0.45403256,15.0062,02/05.0/2015,2000,g 11.0,6.0
# From NK 2721
71P/Clark,e,9.4527,59.5700,208.9931,3.132867,0.1777424,0.49572630,204.3272,02/05.0/2015,2000,g  9.8,6.0
# From MPC 89011
72P/Denning-Fujikawa,e,9.1701,36.0832,337.8831,4.338640,0.1090621,0.81927140,22.7225,02/05.0/2015,2000,g 17.5,10.0
# From NK 2710
73P/Schwassmann-Wachmann,e,11.2513,69.7530,199.4070,3.088061,0.1816249,0.68622377,220.0089,02/05.0/2015,2000,g 11.5,6.0
# From MPC 75717
74P/Smirnova-Chernykh,e,6.6515,77.0641,86.6733,4.160806,0.1161282,0.14892778,234.0891,02/05.0/2015,2000,g  5.0,6.0
# From MPC 82322
76P/West-Kohoutek-Ikemura,e,30.4808,84.1271,0.0689,3.470874,0.1524213,0.53862337,97.2983,02/05.0/2015,2000,g  8.0,12.0
# From MPC 84320
77P/Longmore,e,24.3337,14.8477,196.8419,3.615981,0.1433392,0.35407488,293.4857,02/05.0/2015,2000,g  7.0,8.0
# From MPC 79654
